[{"OBJECT_NAME":"ZHUHAI-1 03B","OBJECT_ID":"2019-060C","EPOCH":"2026-03-09T23:17:29.992992","MEAN_MOTION":15.48049208,"ECCENTRICITY":0.00085373,"INCLINATION":97.5406,"RA_OF_ASC_NODE":221.8965,"ARG_OF_PERICENTER":320.2572,"MEAN_ANOMALY":39.8051,"EPHEMERIS_TYPE":0,"CLASSIFICATION_TYPE":"U","NORAD_CAT_ID":44536,"ELEMENT_SET_NO":999,"REV_AT_EPOCH":36094,"BSTAR":0.00073406369,"MEAN_MOTION_DOT":0.00038517,"MEAN_MOTION_DDOT":0},{"OBJECT_NAME":"HORS 3 (RS81S)","OBJECT_ID":"2024-199U","EPOCH":"2026-03-09T21:43:04.703520","MEAN_MOTION":15.48395916,"ECCENTRICITY":0.00055575,"INCLINATION":97.3126,"RA_OF_ASC_NODE":303.1753,"ARG_OF_PERICENTER":289.6853,"MEAN_ANOMALY":70.3798,"EPHEMERIS_TYPE":0,"CLASSIFICATION_TYPE":"U","NORAD_CAT_ID":61753,"ELEMENT_SET_NO":999,"REV_AT_EPOCH":12216,"BSTAR":0.00067107368,"MEAN_MOTION_DOT":0.00035592,"MEAN_MOTION_DDOT":0}]
